start=new Date('2022-08-22T00:00:00.000Z').valueOf();
sats=[{"COUNTRY_CODE":"US","MEAN_MOTION":"15.08824586","RA_OF_ASC_NODE":"96.0696","MEAN_MOTION_DDOT":"0.0000000000000","SITE":"AFETR","BSTAR":"-0.00020909000000","OBJECT_TYPE":"PAYLOAD","EPOCH":"2022-08-21T22:00:00.999936","TLE_LINE2":"2 51987  53.2174  96.0696 0001741  62.6914 244.5195 15.08824586  1302","NORAD_CAT_ID":"51987","PERIAPSIS":"538.588","ARG_OF_PERICENTER":"62.6914","TIME_SYSTEM":"UTC","EPHEMERIS_TYPE":"0","REF_FRAME":"TEME","ELEMENT_SET_NO":"999","CENTER_NAME":"EARTH","REV_AT_EPOCH":"130","MEAN_ELEMENT_THEORY":"SGP4","INCLINATION":"53.2174","GP_ID":"210692165","SEMIMAJOR_AXIS":"6917.928","ECCENTRICITY":"0.00017410","LAUNCH_DATE":"2022-03-09","MEAN_MOTION_DOT":"-0.00003613","OBJECT_NAME":"STARLINK-3644","CLASSIFICATION_TYPE":"U","OBJECT_ID":"2022-025AH","FILE":"3542671","PERIOD":"95.439","MEAN_ANOMALY":"244.5195","TLE_LINE1":"1 51987U 22025AH  22233.91667824 -.00003613  00000-0 -20909-3 0  9994","APOAPSIS":"540.997","DECAY_DATE":null,"RCS_SIZE":"LARGE"},{"SITE":"AFETR","MEAN_MOTION_DDOT":"0.0000000000000","RA_OF_ASC_NODE":"96.0721","MEAN_MOTION":"15.08835425","COUNTRY_CODE":"US","NORAD_CAT_ID":"51988","TLE_LINE2":"2 51988  53.2183  96.0721 0001732  56.3904 350.8545 15.08835425  1305","EPOCH":"2022-08-21T22:00:00.999936","OBJECT_TYPE":"PAYLOAD","BSTAR":"-0.00054589000000","TIME_SYSTEM":"UTC","ARG_OF_PERICENTER":"56.3904","PERIAPSIS":"538.561","REF_FRAME":"TEME","EPHEMERIS_TYPE":"0","INCLINATION":"53.2183","REV_AT_EPOCH":"130","MEAN_ELEMENT_THEORY":"SGP4","CENTER_NAME":"EARTH","ELEMENT_SET_NO":"999","MEAN_MOTION_DOT":"-0.00008964","LAUNCH_DATE":"2022-03-09","ECCENTRICITY":"0.00017320","GP_ID":"210692415","SEMIMAJOR_AXIS":"6917.894","PERIOD":"95.438","FILE":"3542671","OBJECT_ID":"2022-025AJ","CLASSIFICATION_TYPE":"U","OBJECT_NAME":"STARLINK-3640","RCS_SIZE":"LARGE","DECAY_DATE":null,"APOAPSIS":"540.958","TLE_LINE1":"1 51988U 22025AJ  22233.91667824 -.00008964  00000-0 -54589-3 0  9990","MEAN_ANOMALY":"350.8545"},{"INCLINATION":"53.2183","ELEMENT_SET_NO":"999","CENTER_NAME":"EARTH","REV_AT_EPOCH":"130","MEAN_ELEMENT_THEORY":"SGP4","LAUNCH_DATE":"2022-03-09","MEAN_MOTION_DOT":"-0.00005498","GP_ID":"210693663","SEMIMAJOR_AXIS":"6917.865","ECCENTRICITY":"0.00016770","PERIOD":"95.437","OBJECT_NAME":"STARLINK-3642","CLASSIFICATION_TYPE":"U","OBJECT_ID":"2022-025AK","FILE":"3542671","DECAY_DATE":null,"RCS_SIZE":"LARGE","TLE_LINE1":"1 51989U 22025AK  22233.91667824 -.00005498  00000-0 -32756-3 0  9992","MEAN_ANOMALY":"270.6486","APOAPSIS":"540.890","RA_OF_ASC_NODE":"96.0749","SITE":"AFETR","MEAN_MOTION_DDOT":"0.0000000000000","COUNTRY_CODE":"US","MEAN_MOTION":"15.08845032","TLE_LINE2":"2 51989  53.2183  96.0749 0001677  56.6224 270.6486 15.08845032  1300","NORAD_CAT_ID":"51989","BSTAR":"-0.00032756000000","OBJECT_TYPE":"PAYLOAD","EPOCH":"2022-08-21T22:00:00.999936","TIME_SYSTEM":"UTC","PERIAPSIS":"538.570","ARG_OF_PERICENTER":"56.6224","REF_FRAME":"TEME","EPHEMERIS_TYPE":"0"},{"LAUNCH_DATE":"2022-03-09","MEAN_MOTION_DOT":"0.00015800","SEMIMAJOR_AXIS":"6917.959","GP_ID":"210693916","ECCENTRICITY":"0.00013140","INCLINATION":"53.2158","ELEMENT_SET_NO":"999","REV_AT_EPOCH":"130","CENTER_NAME":"EARTH","MEAN_ELEMENT_THEORY":"SGP4","DECAY_DATE":null,"RCS_SIZE":"LARGE","TLE_LINE1":"1 51990U 22025AL  22233.91667824  .00015800  00000-0  10093-2 0  9999","APOAPSIS":"540.733","MEAN_ANOMALY":"54.6469","PERIOD":"95.439","OBJECT_NAME":"STARLINK-3657","CLASSIFICATION_TYPE":"U","OBJECT_ID":"2022-025AL","FILE":"3542671","TLE_LINE2":"2 51990  53.2158  76.0690 0001314  82.6523  54.6469 15.08814404  1306","NORAD_CAT_ID":"51990","BSTAR":"0.00100930000000","OBJECT_TYPE":"PAYLOAD","EPOCH":"2022-08-21T22:00:00.999936","RA_OF_ASC_NODE":"76.0690","MEAN_MOTION_DDOT":"0.0000000000000","SITE":"AFETR","COUNTRY_CODE":"US","MEAN_MOTION":"15.08814404","REF_FRAME":"TEME","EPHEMERIS_TYPE":"0","TIME_SYSTEM":"UTC","PERIAPSIS":"538.915","ARG_OF_PERICENTER":"82.6523"},{"PERIOD":"95.438","OBJECT_ID":"2022-025AM","FILE":"3542671","OBJECT_NAME":"STARLINK-3652","CLASSIFICATION_TYPE":"U","RCS_SIZE":"LARGE","DECAY_DATE":null,"MEAN_ANOMALY":"310.0767","TLE_LINE1":"1 51991U 22025AM  22233.91667824 -.00007978  00000-0 -48387-3 0  9997","APOAPSIS":"541.114","INCLINATION":"53.2190","REV_AT_EPOCH":"130","MEAN_ELEMENT_THEORY":"SGP4","CENTER_NAME":"EARTH","ELEMENT_SET_NO":"999","MEAN_MOTION_DOT":"-0.00007978","LAUNCH_DATE":"2022-03-09","ECCENTRICITY":"0.00019170","GP_ID":"210692665","SEMIMAJOR_AXIS":"6917.922","TIME_SYSTEM":"UTC","ARG_OF_PERICENTER":"57.2065","PERIAPSIS":"538.461","REF_FRAME":"TEME","EPHEMERIS_TYPE":"0","MEAN_MOTION_DDOT":"0.0000000000000","SITE":"AFETR","RA_OF_ASC_NODE":"96.0777","MEAN_MOTION":"15.08826261","COUNTRY_CODE":"US","NORAD_CAT_ID":"51991","TLE_LINE2":"2 51991  53.2190  96.0777 0001917  57.2065 310.0767 15.08826261  1303","EPOCH":"2022-08-21T22:00:00.999936","BSTAR":"-0.00048387000000","OBJECT_TYPE":"PAYLOAD"},{"EPHEMERIS_TYPE":"0","REF_FRAME":"TEME","PERIAPSIS":"538.617","ARG_OF_PERICENTER":"63.7379","TIME_SYSTEM":"UTC","BSTAR":"0.00115180000000","OBJECT_TYPE":"PAYLOAD","EPOCH":"2022-08-21T22:00:00.999936","TLE_LINE2":"2 51992  53.2164  76.0776 0001651  63.7379 133.5588 15.08835439  1303","NORAD_CAT_ID":"51992","COUNTRY_CODE":"US","MEAN_MOTION":"15.08835439","RA_OF_ASC_NODE":"76.0776","MEAN_MOTION_DDOT":"0.0000000000000","SITE":"AFETR","APOAPSIS":"540.901","TLE_LINE1":"1 51992U 22025AN  22233.91667824  .00018088  00000-0  11518-2 0  9995","MEAN_ANOMALY":"133.5588","DECAY_DATE":null,"RCS_SIZE":"LARGE","OBJECT_NAME":"STARLINK-3643","CLASSIFICATION_TYPE":"U","OBJECT_ID":"2022-025AN","FILE":"3542671","PERIOD":"95.438","SEMIMAJOR_AXIS":"6917.894","GP_ID":"210692915","ECCENTRICITY":"0.00016510","LAUNCH_DATE":"2022-03-09","MEAN_MOTION_DOT":"0.00018088","ELEMENT_SET_NO":"999","REV_AT_EPOCH":"130","MEAN_ELEMENT_THEORY":"SGP4","CENTER_NAME":"EARTH","INCLINATION":"53.2164"},{"INCLINATION":"53.2189","REV_AT_EPOCH":"130","MEAN_ELEMENT_THEORY":"SGP4","CENTER_NAME":"EARTH","ELEMENT_SET_NO":"999","MEAN_MOTION_DOT":"-0.00008803","LAUNCH_DATE":"2022-03-09","ECCENTRICITY":"0.00017230","GP_ID":"210693164","SEMIMAJOR_AXIS":"6917.935","PERIOD":"95.439","FILE":"3542671","OBJECT_ID":"2022-025AP","CLASSIFICATION_TYPE":"U","OBJECT_NAME":"STARLINK-3648","RCS_SIZE":"LARGE","DECAY_DATE":null,"TLE_LINE1":"1 51993U 22025AP  22233.91667824 -.00008803  00000-0 -53592-3 0  9991","MEAN_ANOMALY":"358.4969","APOAPSIS":"540.992","MEAN_MOTION_DDOT":"0.0000000000000","SITE":"AFETR","RA_OF_ASC_NODE":"96.0813","MEAN_MOTION":"15.08822277","COUNTRY_CODE":"US","NORAD_CAT_ID":"51993","TLE_LINE2":"2 51993  53.2189  96.0813 0001723  68.7837 358.4969 15.08822277  1306","EPOCH":"2022-08-21T22:00:00.999936","OBJECT_TYPE":"PAYLOAD","BSTAR":"-0.00053592000000","TIME_SYSTEM":"UTC","ARG_OF_PERICENTER":"68.7837","PERIAPSIS":"538.608","REF_FRAME":"TEME","EPHEMERIS_TYPE":"0"},{"COUNTRY_CODE":"US","MEAN_MOTION":"15.08827648","RA_OF_ASC_NODE":"76.0777","SITE":"AFETR","MEAN_MOTION_DDOT":"0.0000000000000","BSTAR":"0.00112840000000","OBJECT_TYPE":"PAYLOAD","EPOCH":"2022-08-21T22:00:00.999936","TLE_LINE2":"2 51994  53.2166  76.0777 0001707  66.4890 150.8158 15.08827648  1306","NORAD_CAT_ID":"51994","PERIAPSIS":"538.602","ARG_OF_PERICENTER":"66.4890","TIME_SYSTEM":"UTC","EPHEMERIS_TYPE":"0","REF_FRAME":"TEME","ELEMENT_SET_NO":"999","REV_AT_EPOCH":"130","CENTER_NAME":"EARTH","MEAN_ELEMENT_THEORY":"SGP4","INCLINATION":"53.2166","GP_ID":"210693417","SEMIMAJOR_AXIS":"6917.918","ECCENTRICITY":"0.00017070","LAUNCH_DATE":"2022-03-09","MEAN_MOTION_DOT":"0.00017710","OBJECT_NAME":"STARLINK-3647","CLASSIFICATION_TYPE":"U","OBJECT_ID":"2022-025AQ","FILE":"3542671","PERIOD":"95.438","TLE_LINE1":"1 51994U 22025AQ  22233.91667824  .00017710  00000-0  11284-2 0  9998","MEAN_ANOMALY":"150.8158","APOAPSIS":"540.964","DECAY_DATE":null,"RCS_SIZE":"LARGE"},{"TLE_LINE1":"1 51995U 22025AR  22233.91667824  .00016696  00000-0  10649-2 0  9995","MEAN_ANOMALY":"83.7624","APOAPSIS":"540.740","DECAY_DATE":null,"RCS_SIZE":"LARGE","OBJECT_NAME":"STARLINK-3636","CLASSIFICATION_TYPE":"U","OBJECT_ID":"2022-025AR","FILE":"3542671","PERIOD":"95.438","SEMIMAJOR_AXIS":"6917.908","GP_ID":"210692166","ECCENTRICITY":"0.00013990","LAUNCH_DATE":"2022-03-09","MEAN_MOTION_DOT":"0.00016696","ELEMENT_SET_NO":"999","REV_AT_EPOCH":"130","CENTER_NAME":"EARTH","MEAN_ELEMENT_THEORY":"SGP4","INCLINATION":"53.2157","EPHEMERIS_TYPE":"0","REF_FRAME":"TEME","PERIAPSIS":"538.805","ARG_OF_PERICENTER":"73.4968","TIME_SYSTEM":"UTC","BSTAR":"0.00106490000000","OBJECT_TYPE":"PAYLOAD","EPOCH":"2022-08-21T22:00:00.999936","TLE_LINE2":"2 51995  53.2157  76.0694 0001399  73.4968  83.7624 15.08831075  1307","NORAD_CAT_ID":"51995","COUNTRY_CODE":"US","MEAN_MOTION":"15.08831075","RA_OF_ASC_NODE":"76.0694","MEAN_MOTION_DDOT":"0.0000000000000","SITE":"AFETR"},{"NORAD_CAT_ID":"51996","TLE_LINE2":"2 51996  53.2167  76.0773 0001449  78.6087 158.6820 15.08833159  1307","EPOCH":"2022-08-21T22:00:00.999936","OBJECT_TYPE":"PAYLOAD","BSTAR":"0.00113920000000","SITE":"AFETR","MEAN_MOTION_DDOT":"0.0000000000000","RA_OF_ASC_NODE":"76.0773","MEAN_MOTION":"15.08833159","COUNTRY_CODE":"US","REF_FRAME":"TEME","EPHEMERIS_TYPE":"0","TIME_SYSTEM":"UTC","ARG_OF_PERICENTER":"78.6087","PERIAPSIS":"538.764","MEAN_MOTION_DOT":"0.00017885","LAUNCH_DATE":"2022-03-09","ECCENTRICITY":"0.00014490","GP_ID":"210692416","SEMIMAJOR_AXIS":"6917.901","INCLINATION":"53.2167","REV_AT_EPOCH":"130","MEAN_ELEMENT_THEORY":"SGP4","CENTER_NAME":"EARTH","ELEMENT_SET_NO":"999","RCS_SIZE":"LARGE","DECAY_DATE":null,"APOAPSIS":"540.769","TLE_LINE1":"1 51996U 22025AS  22233.91667824  .00017885  00000-0  11392-2 0  9993","MEAN_ANOMALY":"158.6820","PERIOD":"95.438","FILE":"3542671","OBJECT_ID":"2022-025AS","CLASSIFICATION_TYPE":"U","OBJECT_NAME":"STARLINK-3538"}];
